start=new Date('2022-05-26T00:00:00.000Z').valueOf();
sats=[{"CLASSIFICATION_TYPE":"U","MEAN_MOTION_DDOT":"0.0000000000000","REF_FRAME":"TEME","MEAN_ELEMENT_THEORY":"SGP4","REV_AT_EPOCH":"14017","APOAPSIS":"548.321","RCS_SIZE":"LARGE","EPHEMERIS_TYPE":"0","FILE":"3464394","EPOCH":"2022-05-25T20:16:34.294368","TIME_SYSTEM":"UTC","NORAD_CAT_ID":"44720","CENTER_NAME":"EARTH","TLE_LINE1":"1 44720U 19074H   22145.84484137  .00002415  00000-0  18096-3 0  9990","GP_ID":"204534891","PERIOD":"95.592","RA_OF_ASC_NODE":"278.9319","MEAN_ANOMALY":"295.2732","BSTAR":"0.00018096000000","COUNTRY_CODE":"US","SEMIMAJOR_AXIS":"6925.336","SITE":"AFETR","OBJECT_ID":"2019-074H","MEAN_MOTION":"15.06404176","MEAN_MOTION_DOT":"0.00002415","ARG_OF_PERICENTER":"64.8425","ECCENTRICITY":"0.00016170","TLE_LINE2":"2 44720  53.0541 278.9319 0001617  64.8425 295.2732 15.06404176140177","LAUNCH_DATE":"2019-11-11","ELEMENT_SET_NO":"999","DECAY_DATE":null,"OBJECT_NAME":"STARLINK-1014","PERIAPSIS":"546.081","INCLINATION":"53.0541","OBJECT_TYPE":"PAYLOAD"},{"EPOCH":"2022-05-25T16:49:34.618368","FILE":"3464394","APOAPSIS":"548.275","RCS_SIZE":"LARGE","EPHEMERIS_TYPE":"0","REV_AT_EPOCH":"14014","REF_FRAME":"TEME","MEAN_ELEMENT_THEORY":"SGP4","CLASSIFICATION_TYPE":"U","MEAN_MOTION_DDOT":"0.0000000000000","GP_ID":"204536143","CENTER_NAME":"EARTH","TLE_LINE1":"1 44721U 19074J   22145.70109512 -.00000970  00000-0 -46218-4 0  9991","NORAD_CAT_ID":"44721","TIME_SYSTEM":"UTC","SITE":"AFETR","OBJECT_ID":"2019-074J","SEMIMAJOR_AXIS":"6925.381","COUNTRY_CODE":"US","BSTAR":"-0.00004621800000","PERIOD":"95.593","MEAN_ANOMALY":"293.7301","RA_OF_ASC_NODE":"279.5891","OBJECT_TYPE":"PAYLOAD","PERIAPSIS":"546.218","INCLINATION":"53.0543","DECAY_DATE":null,"OBJECT_NAME":"STARLINK-1015","ELEMENT_SET_NO":"999","TLE_LINE2":"2 44721  53.0543 279.5891 0001485  66.3843 293.7301 15.06389357140141","LAUNCH_DATE":"2019-11-11","MEAN_MOTION_DOT":"-0.00000970","ARG_OF_PERICENTER":"66.3843","ECCENTRICITY":"0.00014850","MEAN_MOTION":"15.06389357"},{"MEAN_MOTION":"15.06389743","ECCENTRICITY":"0.00014960","ARG_OF_PERICENTER":"70.2257","MEAN_MOTION_DOT":"-0.00001663","LAUNCH_DATE":"2019-11-11","TLE_LINE2":"2 44722  53.0563 279.5726 0001496  70.2257 289.8894 15.06389743140159","ELEMENT_SET_NO":"999","OBJECT_NAME":"STARLINK-1016","DECAY_DATE":null,"INCLINATION":"53.0563","PERIAPSIS":"546.209","OBJECT_TYPE":"PAYLOAD","PERIOD":"95.593","MEAN_ANOMALY":"289.8894","RA_OF_ASC_NODE":"279.5726","BSTAR":"-0.00009278300000","COUNTRY_CODE":"US","SEMIMAJOR_AXIS":"6925.380","SITE":"AFETR","OBJECT_ID":"2019-074K","TIME_SYSTEM":"UTC","NORAD_CAT_ID":"44722","TLE_LINE1":"1 44722U 19074K   22145.70478238 -.00001663  00000-0 -92783-4 0  9994","CENTER_NAME":"EARTH","GP_ID":"204536394","MEAN_MOTION_DDOT":"0.0000000000000","CLASSIFICATION_TYPE":"U","MEAN_ELEMENT_THEORY":"SGP4","REF_FRAME":"TEME","REV_AT_EPOCH":"14015","EPHEMERIS_TYPE":"0","APOAPSIS":"548.281","RCS_SIZE":"LARGE","FILE":"3464394","EPOCH":"2022-05-25T16:54:53.197632"},{"FILE":"3464394","EPOCH":"2022-05-25T20:27:11.178144","REF_FRAME":"TEME","MEAN_ELEMENT_THEORY":"SGP4","CLASSIFICATION_TYPE":"U","MEAN_MOTION_DDOT":"0.0000000000000","RCS_SIZE":"LARGE","APOAPSIS":"548.312","EPHEMERIS_TYPE":"0","REV_AT_EPOCH":"14017","CENTER_NAME":"EARTH","TLE_LINE1":"1 44723U 19074L   22145.85221271  .00000339  00000-0  41684-4 0  9995","GP_ID":"204535142","TIME_SYSTEM":"UTC","NORAD_CAT_ID":"44723","SITE":"AFETR","OBJECT_ID":"2019-074L","SEMIMAJOR_AXIS":"6925.357","PERIOD":"95.592","RA_OF_ASC_NODE":"278.9169","MEAN_ANOMALY":"294.0378","COUNTRY_CODE":"US","BSTAR":"0.00004168400000","DECAY_DATE":null,"OBJECT_NAME":"STARLINK-1017","ELEMENT_SET_NO":"999","OBJECT_TYPE":"PAYLOAD","PERIAPSIS":"546.133","INCLINATION":"53.0551","MEAN_MOTION_DOT":"0.00000339","ARG_OF_PERICENTER":"66.0776","ECCENTRICITY":"0.00015730","MEAN_MOTION":"15.06397179","TLE_LINE2":"2 44723  53.0551 278.9169 0001573  66.0776 294.0378 15.06397179140175","LAUNCH_DATE":"2019-11-11"},{"BSTAR":"0.00007260000000","COUNTRY_CODE":"US","RA_OF_ASC_NODE":"279.6787","PERIOD":"95.592","MEAN_ANOMALY":"300.3551","SEMIMAJOR_AXIS":"6925.365","OBJECT_ID":"2019-074M","SITE":"AFETR","TLE_LINE2":"2 44724  53.0569 279.6787 0001591  59.7595 300.3551 15.06394705140140","LAUNCH_DATE":"2019-11-11","MEAN_MOTION":"15.06394705","ECCENTRICITY":"0.00015910","ARG_OF_PERICENTER":"59.7595","MEAN_MOTION_DOT":"0.00000800","INCLINATION":"53.0569","PERIAPSIS":"546.128","OBJECT_TYPE":"PAYLOAD","ELEMENT_SET_NO":"999","OBJECT_NAME":"STARLINK-1019","DECAY_DATE":null,"REV_AT_EPOCH":"14014","EPHEMERIS_TYPE":"0","RCS_SIZE":"LARGE","APOAPSIS":"548.332","MEAN_MOTION_DDOT":"0.0000000000000","CLASSIFICATION_TYPE":"U","MEAN_ELEMENT_THEORY":"SGP4","REF_FRAME":"TEME","EPOCH":"2022-05-25T16:23:02.065056","FILE":"3464394","NORAD_CAT_ID":"44724","TIME_SYSTEM":"UTC","GP_ID":"204535392","TLE_LINE1":"1 44724U 19074M   22145.68266279  .00000800  00000-0  72600-4 0  9999","CENTER_NAME":"EARTH"},{"MEAN_MOTION":"15.06390062","MEAN_MOTION_DOT":"0.00000312","ECCENTRICITY":"0.00015560","ARG_OF_PERICENTER":"74.3352","LAUNCH_DATE":"2019-11-11","TLE_LINE2":"2 44725  53.0558 299.3349 0001556  74.3352 285.7809 15.06390062139879","ELEMENT_SET_NO":"999","DECAY_DATE":null,"OBJECT_NAME":"STARLINK-1020","PERIAPSIS":"546.166","INCLINATION":"53.0558","OBJECT_TYPE":"PAYLOAD","RA_OF_ASC_NODE":"299.3349","PERIOD":"95.593","MEAN_ANOMALY":"285.7809","BSTAR":"0.00003987000000","COUNTRY_CODE":"US","SEMIMAJOR_AXIS":"6925.379","OBJECT_ID":"2019-074N","SITE":"AFETR","TIME_SYSTEM":"UTC","NORAD_CAT_ID":"44725","CENTER_NAME":"EARTH","TLE_LINE1":"1 44725U 19074N   22145.75454494  .00000312  00000-0  39870-4 0  9996","GP_ID":"204535643","CLASSIFICATION_TYPE":"U","MEAN_MOTION_DDOT":"0.0000000000000","REF_FRAME":"TEME","MEAN_ELEMENT_THEORY":"SGP4","REV_AT_EPOCH":"13987","RCS_SIZE":"LARGE","APOAPSIS":"548.322","EPHEMERIS_TYPE":"0","FILE":"3464394","EPOCH":"2022-05-25T18:06:32.682816"},{"ELEMENT_SET_NO":"999","OBJECT_NAME":"STARLINK-1021","DECAY_DATE":null,"INCLINATION":"53.0547","PERIAPSIS":"546.164","OBJECT_TYPE":"PAYLOAD","MEAN_MOTION":"15.06388206","ARG_OF_PERICENTER":"70.5697","ECCENTRICITY":"0.00015680","MEAN_MOTION_DOT":"0.00000912","LAUNCH_DATE":"2019-11-11","TLE_LINE2":"2 44726  53.0547 279.6829 0001568  70.5697 289.5462 15.06388206140141","SEMIMAJOR_AXIS":"6925.385","OBJECT_ID":"2019-074P","SITE":"AFETR","RA_OF_ASC_NODE":"279.6829","PERIOD":"95.593","MEAN_ANOMALY":"289.5462","BSTAR":"0.00008014000000","COUNTRY_CODE":"US","TLE_LINE1":"1 44726U 19074P   22145.67898318  .00000912  00000-0  80140-4 0  9997","CENTER_NAME":"EARTH","GP_ID":"204535894","TIME_SYSTEM":"UTC","NORAD_CAT_ID":"44726","FILE":"3464394","EPOCH":"2022-05-25T16:17:44.146752","MEAN_MOTION_DDOT":"0.0000000000000","CLASSIFICATION_TYPE":"U","MEAN_ELEMENT_THEORY":"SGP4","REF_FRAME":"TEME","REV_AT_EPOCH":"14014","EPHEMERIS_TYPE":"0","APOAPSIS":"548.336","RCS_SIZE":"LARGE"},{"GP_ID":"204534642","TLE_LINE1":"1 44727U 19074Q   22145.71489616  .00001193  00000-0  98972-4 0  9994","CENTER_NAME":"EARTH","NORAD_CAT_ID":"44727","TIME_SYSTEM":"UTC","EPOCH":"2022-05-25T17:09:27.028224","FILE":"3464394","EPHEMERIS_TYPE":"0","APOAPSIS":"548.296","RCS_SIZE":"LARGE","REV_AT_EPOCH":"13960","MEAN_ELEMENT_THEORY":"SGP4","REF_FRAME":"TEME","MEAN_MOTION_DDOT":"0.0000000000000","CLASSIFICATION_TYPE":"U","OBJECT_TYPE":"PAYLOAD","INCLINATION":"53.0548","PERIAPSIS":"546.169","OBJECT_NAME":"STARLINK-1022","DECAY_DATE":null,"ELEMENT_SET_NO":"999","TLE_LINE2":"2 44727  53.0548 319.5273 0001536  67.4779 292.6373 15.06393785139604","LAUNCH_DATE":"2019-11-11","ARG_OF_PERICENTER":"67.4779","ECCENTRICITY":"0.00015360","MEAN_MOTION_DOT":"0.00001193","MEAN_MOTION":"15.06393785","SITE":"AFETR","OBJECT_ID":"2019-074Q","SEMIMAJOR_AXIS":"6925.368","COUNTRY_CODE":"US","BSTAR":"0.00009897200000","PERIOD":"95.593","MEAN_ANOMALY":"292.6373","RA_OF_ASC_NODE":"319.5273"},{"MEAN_MOTION_DOT":"0.00030313","ARG_OF_PERICENTER":"114.3301","ECCENTRICITY":"0.00008340","MEAN_MOTION":"15.13230567","LAUNCH_DATE":"2019-11-11","TLE_LINE2":"2 44729  53.0028 290.4290 0000834 114.3301 245.7777 15.13230567139960","DECAY_DATE":null,"OBJECT_NAME":"STARLINK-1024","ELEMENT_SET_NO":"999","OBJECT_TYPE":"PAYLOAD","PERIAPSIS":"525.782","INCLINATION":"53.0028","PERIOD":"95.161","MEAN_ANOMALY":"245.7777","RA_OF_ASC_NODE":"290.4290","COUNTRY_CODE":"US","BSTAR":"0.00169590000000","OBJECT_ID":"2019-074S","SITE":"AFETR","SEMIMAJOR_AXIS":"6904.493","TIME_SYSTEM":"UTC","NORAD_CAT_ID":"44729","CENTER_NAME":"EARTH","TLE_LINE1":"1 44729U 19074S   22145.70810513  .00030313  00000-0  16959-2 0  9998","GP_ID":"204534892","REF_FRAME":"TEME","MEAN_ELEMENT_THEORY":"SGP4","CLASSIFICATION_TYPE":"U","MEAN_MOTION_DDOT":"0.0000000000000","APOAPSIS":"526.933","RCS_SIZE":"LARGE","EPHEMERIS_TYPE":"0","REV_AT_EPOCH":"13996","FILE":"3464394","EPOCH":"2022-05-25T16:59:40.283232"},{"OBJECT_ID":"2019-074U","SITE":"AFETR","SEMIMAJOR_AXIS":"6925.327","MEAN_ANOMALY":"282.0843","PERIOD":"95.592","RA_OF_ASC_NODE":"279.6312","COUNTRY_CODE":"US","BSTAR":"0.00008423000000","OBJECT_NAME":"STARLINK-1026","DECAY_DATE":null,"ELEMENT_SET_NO":"999","OBJECT_TYPE":"PAYLOAD","INCLINATION":"53.0575","PERIAPSIS":"546.184","ARG_OF_PERICENTER":"78.0309","ECCENTRICITY":"0.00014560","MEAN_MOTION_DOT":"0.00000974","MEAN_MOTION":"15.06406945","TLE_LINE2":"2 44731  53.0575 279.6312 0001456  78.0309 282.0843 15.06406945140146","LAUNCH_DATE":"2019-11-11","FILE":"3464394","EPOCH":"2022-05-25T16:33:38.950560","MEAN_ELEMENT_THEORY":"SGP4","REF_FRAME":"TEME","MEAN_MOTION_DDOT":"0.0000000000000","CLASSIFICATION_TYPE":"U","EPHEMERIS_TYPE":"0","RCS_SIZE":"LARGE","APOAPSIS":"548.201","REV_AT_EPOCH":"14014","TLE_LINE1":"1 44731U 19074U   22145.69003415  .00000974  00000-0  84230-4 0  9993","CENTER_NAME":"EARTH","GP_ID":"204536144","TIME_SYSTEM":"UTC","NORAD_CAT_ID":"44731"}];
